QIANFAN-49              
1 62250U 24232P   26011.98445759  .00000052  00000+0  61112-4 0  9990
2 62250  89.0003  38.1818 0016112 106.1790 254.1135 13.50983329 71924
QIANFAN-50              
1 62251U 24232Q   26011.93512024  .00000039  00000+0  42013-4 0  9990
2 62251  89.0008  38.1966 0017760 107.6618 252.6474 13.50980108 71942
QIANFAN-51              
1 62252U 24232R   26011.99270204  .00000037  00000+0  38888-4 0  9991
2 62252  89.0002  38.1828 0015217 110.4623 249.8163 13.50982765 71941
QIANFAN-52              
1 62253U 24232S   26011.94748869  .00000041  00000+0  44234-4 0  9991
2 62253  88.9998  38.0598 0017286 103.9546 256.3529 13.50980761 72029
QIANFAN-53              
1 62254U 24232T   26011.92684496  .00000038  00000+0  40619-4 0  9994
2 62254  89.0006  38.1687 0016156 104.8808 255.4134 13.50983378 71981
QIANFAN-54              
1 62255U 24232U   26011.96797192  .00000038  00000+0  40494-4 0  9998
2 62255  88.9997  37.8402 0003631 122.1109 238.0395 13.50983758103491
QIANFAN-55              
1 62785U 25016A   26011.91987430  .00000144  00000+0  20511-3 0  9993
2 62785  88.9773 100.0974 0015689 257.9805 101.9588 13.50986253 51266
QIANFAN-56              
1 62786U 25016B   26011.93633737  .00000152  00000+0  21708-3 0  9992
2 62786  88.9746  99.9240 0014301 260.2016  99.7520 13.50988750 51310
